STARLINK-35195          
1 65606U 25207Q   26027.13361908  .00012650  00000+0  87897-3 0  9992
2 65606  97.6163  97.7995 0004631 341.2698  18.8358 15.05660354 22013
STARLINK-35156          
1 65607U 25207R   26027.87019949  .00017220  00000+0  11951-2 0  9994
2 65607  97.5998  98.4838 0001801 114.3351 245.8064 15.05638086 22129
STARLINK-35185          
1 65608U 25207S   26027.42990574  .00012218  00000+0  84951-3 0  9991
2 65608  97.6041  98.0034 0001225  80.8143 279.3223 15.05650037 22051
STARLINK-35053          
1 65609U 25207T   26027.61266417  .00014281  00000+0  99182-3 0  9999
2 65609  97.6031  98.2179 0000404 262.6963  97.4218 15.05656040 21929
STARLINK-35178          
1 65610U 25207U   26027.64035641  .00011971  00000+0  83228-3 0  9994
2 65610  97.6042  98.1834 0001418 103.1607 256.9778 15.05657035 22086
STARLINK-35186          
1 65611U 25207V   26027.13081630  .00000959  00000+0  70623-4 0  9998
2 65611  97.6044  97.6297 0001951 102.4032 257.7414 15.05659567 22002
STARLINK-35154          
1 65612U 25207W   26027.14191934  .00012135  00000+0  84383-3 0  9995
2 65612  97.6044  97.7693 0001318  47.0993 313.0344 15.05647205 21857
STARLINK-35162          
1 65613U 25207X   26027.62097383  .00008294  00000+0  57833-3 0  9993
2 65613  97.6038  98.2108 0001099  81.7979 278.3372 15.05652855 22080
STARLINK-35206          
1 65614U 25207Y   26027.64589402  .00007265  00000+0  50718-3 0  9996
2 65614  97.6067  98.1756 0001047 104.4796 255.6547 15.05652277 21971
STARLINK-35174          
1 65615U 25207Z   26027.65417931 -.00010063  00000+0 -69424-3 0  9991
2 65615  97.6044  98.1634 0001336  89.7553 270.3827 15.05646383 22088
STARLINK-35247          
1 65622U 25210A   26027.50413265  .00038277  00000+0  12981-2 0  9993
2 65622  53.1590 138.5107 0001775  42.6539 317.4600 15.30193565 21428
STARLINK-35239          
1 65623U 25210B   26027.53249807  .00044069  00000+0  14887-2 0  9999
2 65623  53.1571 137.9713 0001242  76.1981 283.9158 15.30255582 21430
STARLINK-35151          
1 65624U 25210C   26027.70640573  .00042815  00000+0  14493-2 0  9994
2 65624  53.1590 137.6335 0000847  86.3937 273.7160 15.30201782 21379
STARLINK-35153          
1 65625U 25210D   26027.65786036  .00043394  00000+0  14687-2 0  9992
2 65625  53.1573 137.3323 0001352 111.1341 248.9805 15.30200163 21375
STARLINK-35225          
1 65626U 25210E   26027.68002321  .00050863  00000+0  17183-2 0  9997
2 65626  53.1597 137.4741 0001139  82.2435 277.8695 15.30188018 21453
STARLINK-35217          
1 65627U 25210F   26027.51784752  .00056181  00000+0  18957-2 0  9994
2 65627  53.1570 138.5895 0001168  72.5404 287.5724 15.30182768 21421
