[{"OBJECT_NAME":"STARLINK-35195","OBJECT_ID":"2025-207Q","EPOCH":"2026-01-27T03:12:24.688512","MEAN_MOTION":15.05660354,"ECCENTRICITY":0.00046318,"INCLINATION":97.6163,"RA_OF_ASC_NODE":97.7995,"ARG_OF_PERICENTER":341.2698,"MEAN_ANOMALY":18.8358,"EPHEMERIS_TYPE":0,"CLASSIFICATION_TYPE":"U","NORAD_CAT_ID":65606,"ELEMENT_SET_NO":999,"REV_AT_EPOCH":2201,"BSTAR":0.00087897221,"MEAN_MOTION_DOT":0.0001265,"MEAN_MOTION_DDOT":0},{"OBJECT_NAME":"STARLINK-35156","OBJECT_ID":"2025-207R","EPOCH":"2026-01-27T20:53:05.235936","MEAN_MOTION":15.05638086,"ECCENTRICITY":0.00018018,"INCLINATION":97.5998,"RA_OF_ASC_NODE":98.4838,"ARG_OF_PERICENTER":114.3351,"MEAN_ANOMALY":245.8064,"EPHEMERIS_TYPE":0,"CLASSIFICATION_TYPE":"U","NORAD_CAT_ID":65607,"ELEMENT_SET_NO":999,"REV_AT_EPOCH":2212,"BSTAR":0.0011950844,"MEAN_MOTION_DOT":0.0001722,"MEAN_MOTION_DDOT":0},{"OBJECT_NAME":"STARLINK-35185","OBJECT_ID":"2025-207S","EPOCH":"2026-01-27T10:19:03.855936","MEAN_MOTION":15.05650037,"ECCENTRICITY":0.00012256,"INCLINATION":97.6041,"RA_OF_ASC_NODE":98.0034,"ARG_OF_PERICENTER":80.8143,"MEAN_ANOMALY":279.3223,"EPHEMERIS_TYPE":0,"CLASSIFICATION_TYPE":"U","NORAD_CAT_ID":65608,"ELEMENT_SET_NO":999,"REV_AT_EPOCH":2205,"BSTAR":0.00084951138,"MEAN_MOTION_DOT":0.00012218,"MEAN_MOTION_DDOT":0},{"OBJECT_NAME":"STARLINK-35053","OBJECT_ID":"2025-207T","EPOCH":"2026-01-27T14:42:14.184288","MEAN_MOTION":15.0565604,"ECCENTRICITY":4.04e-5,"INCLINATION":97.6031,"RA_OF_ASC_NODE":98.2179,"ARG_OF_PERICENTER":262.6963,"MEAN_ANOMALY":97.4218,"EPHEMERIS_TYPE":0,"CLASSIFICATION_TYPE":"U","NORAD_CAT_ID":65609,"ELEMENT_SET_NO":999,"REV_AT_EPOCH":2192,"BSTAR":0.00099182,"MEAN_MOTION_DOT":0.00014281,"MEAN_MOTION_DDOT":0},{"OBJECT_NAME":"STARLINK-35178","OBJECT_ID":"2025-207U","EPOCH":"2026-01-27T15:22:06.793824","MEAN_MOTION":15.05657035,"ECCENTRICITY":0.0001418,"INCLINATION":97.6042,"RA_OF_ASC_NODE":98.1834,"ARG_OF_PERICENTER":103.1607,"MEAN_ANOMALY":256.9778,"EPHEMERIS_TYPE":0,"CLASSIFICATION_TYPE":"U","NORAD_CAT_ID":65610,"ELEMENT_SET_NO":999,"REV_AT_EPOCH":2208,"BSTAR":0.00083228,"MEAN_MOTION_DOT":0.00011971,"MEAN_MOTION_DDOT":0},{"OBJECT_NAME":"STARLINK-35186","OBJECT_ID":"2025-207V","EPOCH":"2026-01-27T03:08:22.528320","MEAN_MOTION":15.05659567,"ECCENTRICITY":0.00019517,"INCLINATION":97.6044,"RA_OF_ASC_NODE":97.6297,"ARG_OF_PERICENTER":102.4032,"MEAN_ANOMALY":257.7414,"EPHEMERIS_TYPE":0,"CLASSIFICATION_TYPE":"U","NORAD_CAT_ID":65611,"ELEMENT_SET_NO":999,"REV_AT_EPOCH":2200,"BSTAR":7.0623316e-5,"MEAN_MOTION_DOT":9.59e-6,"MEAN_MOTION_DDOT":0},{"OBJECT_NAME":"STARLINK-35154","OBJECT_ID":"2025-207W","EPOCH":"2026-01-27T03:24:21.830976","MEAN_MOTION":15.05647205,"ECCENTRICITY":0.00013182,"INCLINATION":97.6044,"RA_OF_ASC_NODE":97.7693,"ARG_OF_PERICENTER":47.0993,"MEAN_ANOMALY":313.0344,"EPHEMERIS_TYPE":0,"CLASSIFICATION_TYPE":"U","NORAD_CAT_ID":65612,"ELEMENT_SET_NO":999,"REV_AT_EPOCH":2185,"BSTAR":0.00084382932,"MEAN_MOTION_DOT":0.00012135,"MEAN_MOTION_DDOT":0},{"OBJECT_NAME":"STARLINK-35162","OBJECT_ID":"2025-207X","EPOCH":"2026-01-27T14:54:12.138912","MEAN_MOTION":15.05652855,"ECCENTRICITY":0.0001099,"INCLINATION":97.6038,"RA_OF_ASC_NODE":98.2108,"ARG_OF_PERICENTER":81.7979,"MEAN_ANOMALY":278.3372,"EPHEMERIS_TYPE":0,"CLASSIFICATION_TYPE":"U","NORAD_CAT_ID":65613,"ELEMENT_SET_NO":999,"REV_AT_EPOCH":2208,"BSTAR":0.00057833,"MEAN_MOTION_DOT":8.294e-5,"MEAN_MOTION_DDOT":0},{"OBJECT_NAME":"STARLINK-35206","OBJECT_ID":"2025-207Y","EPOCH":"2026-01-27T15:30:05.243328","MEAN_MOTION":15.05652277,"ECCENTRICITY":0.0001047,"INCLINATION":97.6067,"RA_OF_ASC_NODE":98.1756,"ARG_OF_PERICENTER":104.4796,"MEAN_ANOMALY":255.6547,"EPHEMERIS_TYPE":0,"CLASSIFICATION_TYPE":"U","NORAD_CAT_ID":65614,"ELEMENT_SET_NO":999,"REV_AT_EPOCH":2197,"BSTAR":0.00050718,"MEAN_MOTION_DOT":7.265e-5,"MEAN_MOTION_DDOT":0},{"OBJECT_NAME":"STARLINK-35174","OBJECT_ID":"2025-207Z","EPOCH":"2026-01-27T15:42:01.092384","MEAN_MOTION":15.05646383,"ECCENTRICITY":0.00013367,"INCLINATION":97.6044,"RA_OF_ASC_NODE":98.1634,"ARG_OF_PERICENTER":89.7553,"MEAN_ANOMALY":270.3827,"EPHEMERIS_TYPE":0,"CLASSIFICATION_TYPE":"U","NORAD_CAT_ID":65615,"ELEMENT_SET_NO":999,"REV_AT_EPOCH":2208,"BSTAR":-0.0006942356,"MEAN_MOTION_DOT":-0.00010063,"MEAN_MOTION_DDOT":0},{"OBJECT_NAME":"STARLINK-35247","OBJECT_ID":"2025-210A","EPOCH":"2026-01-27T12:05:57.060960","MEAN_MOTION":15.30193565,"ECCENTRICITY":0.00017753,"INCLINATION":53.159,"RA_OF_ASC_NODE":138.5107,"ARG_OF_PERICENTER":42.6539,"MEAN_ANOMALY":317.46,"EPHEMERIS_TYPE":0,"CLASSIFICATION_TYPE":"U","NORAD_CAT_ID":65622,"ELEMENT_SET_NO":999,"REV_AT_EPOCH":2142,"BSTAR":0.0012980747,"MEAN_MOTION_DOT":0.00038277,"MEAN_MOTION_DDOT":0},{"OBJECT_NAME":"STARLINK-35239","OBJECT_ID":"2025-210B","EPOCH":"2026-01-27T12:46:47.833248","MEAN_MOTION":15.30255582,"ECCENTRICITY":0.0001242,"INCLINATION":53.1571,"RA_OF_ASC_NODE":137.9713,"ARG_OF_PERICENTER":76.1981,"MEAN_ANOMALY":283.9158,"EPHEMERIS_TYPE":0,"CLASSIFICATION_TYPE":"U","NORAD_CAT_ID":65623,"ELEMENT_SET_NO":999,"REV_AT_EPOCH":2143,"BSTAR":0.0014887,"MEAN_MOTION_DOT":0.00044069,"MEAN_MOTION_DDOT":0},{"OBJECT_NAME":"STARLINK-35151","OBJECT_ID":"2025-210C","EPOCH":"2026-01-27T16:57:13.455072","MEAN_MOTION":15.30201782,"ECCENTRICITY":8.473e-5,"INCLINATION":53.159,"RA_OF_ASC_NODE":137.6335,"ARG_OF_PERICENTER":86.3937,"MEAN_ANOMALY":273.716,"EPHEMERIS_TYPE":0,"CLASSIFICATION_TYPE":"U","NORAD_CAT_ID":65624,"ELEMENT_SET_NO":999,"REV_AT_EPOCH":2137,"BSTAR":0.0014492964,"MEAN_MOTION_DOT":0.00042815,"MEAN_MOTION_DDOT":0},{"OBJECT_NAME":"STARLINK-35153","OBJECT_ID":"2025-210D","EPOCH":"2026-01-27T15:47:19.135104","MEAN_MOTION":15.30200163,"ECCENTRICITY":0.00013521,"INCLINATION":53.1573,"RA_OF_ASC_NODE":137.3323,"ARG_OF_PERICENTER":111.1341,"MEAN_ANOMALY":248.9805,"EPHEMERIS_TYPE":0,"CLASSIFICATION_TYPE":"U","NORAD_CAT_ID":65625,"ELEMENT_SET_NO":999,"REV_AT_EPOCH":2137,"BSTAR":0.0014686837,"MEAN_MOTION_DOT":0.00043394,"MEAN_MOTION_DDOT":0},{"OBJECT_NAME":"STARLINK-35225","OBJECT_ID":"2025-210E","EPOCH":"2026-01-27T16:19:14.005344","MEAN_MOTION":15.30188018,"ECCENTRICITY":0.00011395,"INCLINATION":53.1597,"RA_OF_ASC_NODE":137.4741,"ARG_OF_PERICENTER":82.2435,"MEAN_ANOMALY":277.8695,"EPHEMERIS_TYPE":0,"CLASSIFICATION_TYPE":"U","NORAD_CAT_ID":65626,"ELEMENT_SET_NO":999,"REV_AT_EPOCH":2145,"BSTAR":0.0017183414,"MEAN_MOTION_DOT":0.00050863,"MEAN_MOTION_DDOT":0},{"OBJECT_NAME":"STARLINK-35217","OBJECT_ID":"2025-210F","EPOCH":"2026-01-27T12:25:42.025728","MEAN_MOTION":15.30182768,"ECCENTRICITY":0.00011683,"INCLINATION":53.157,"RA_OF_ASC_NODE":138.5895,"ARG_OF_PERICENTER":72.5404,"MEAN_ANOMALY":287.5724,"EPHEMERIS_TYPE":0,"CLASSIFICATION_TYPE":"U","NORAD_CAT_ID":65627,"ELEMENT_SET_NO":999,"REV_AT_EPOCH":2142,"BSTAR":0.0018956862,"MEAN_MOTION_DOT":0.00056181,"MEAN_MOTION_DDOT":0}]
